[
    {
        "Altitude(m)": 605470.747420346,
        "Argument of Periapsis(deg)": 0.0,
        "Eccentricity": 0.0,
        "Inclination(deg)": 60.0,
        "Latitude(deg)": 27.988067899838157,
        "Longitude(deg)": -137.7370136758146,
        "Mean Anomaly(deg)": 147.27269999999996,
        "RAAN(deg)": 160.0,
        "Satellite Name": "Test1 713",
        "Satellite Number": 713,
        "Semi-Major Axis(m)": 6980739.136638005,
        "Time(s)": 0
    },
    {
        "Altitude(m)": 605395.785688562,
        "Argument of Periapsis(deg)": 0.00010418945913296404,
        "Eccentricity": 0.0,
        "Inclination(deg)": 60.0,
        "Latitude(deg)": 27.473758126491454,
        "Longitude(deg)": -137.38382718392415,
        "Mean Anomaly(deg)": 147.8928061454618,
        "RAAN(deg)": 159.99957995086024,
        "Satellite Name": "Test1 713",
        "Satellite Number": 713,
        "Semi-Major Axis(m)": 6980739.136638005,
        "Time(s)": 10
    }
]